1 36508U 10013A   15347.83176275  .00000108  00000-0  25896-4 0  9999
2 36508  92.0341  69.0292 0010025  65.4132 294.8119 14.52170345301145
1 36508U 10013A   15348.93427930 +.00000133 +00000-0 +32066-4 0  9993
2 36508 092.0340 069.2971 0009956 062.4721 297.7496 14.52170675301328
1 36508U 10013A   15349.20990838  .00000134  00000-0  32316-4 0  9995
2 36508  92.0339  69.3641 0009937  61.7329 298.4880 14.52170756301343
1 36508U 10013A   15350.51914623  .00000149  00000-0  36026-4 0  9997
2 36508  92.0339  69.6822 0009834  58.2092 302.0072 14.52171136301530
1 36508U 10013A   15351.82838372  .00000136  00000-0  32897-4 0  9996
2 36508  92.0338  70.0003 0009730  54.6899 305.5216 14.52171436301728
1 36508U 10013A   15352.86199191  .00000160  00000-0  38650-4 0  9990
2 36508  92.0337  70.2513 0009639  51.8236 308.3839 14.52171854301879
1 36508U 10013A   15353.89559989 +.00000149 +00000-0 +36046-4 0  9993
2 36508 092.0337 070.5024 0009544 048.9150 311.2880 14.52172086302043
1 36508U 10013A   15354.17122861  .00000153  00000-0  36907-4 0  9991
2 36508  92.0336  70.5694 0009516  48.1301 312.0717 14.52172193302063
1 36508U 10013A   15355.20483602  .00000180  00000-0  43643-4 0  9994
2 36508  92.0336  70.8205 0009407  45.2209 314.9762 14.52172729302211
1 36508U 10013A   15356.44516451  .00000179  00000-0  43448-4 0  9991
2 36508  92.0335  71.1218 0009277  41.8110 318.3804 14.52173203302398
1 36508U 10013A   15357.34095940 +.00000192 +00000-0 +46689-4 0  9991
2 36508 092.0334 071.3393 0009156 039.2882 320.8988 14.52170460302546
1 36508U 10013A   15358.16784638  .00000180  00000-0  43777-4 0  9993
2 36508  92.0333  71.5402 0009067  36.8268 323.3561 14.52170763302642
1 36508U 10013A   15359.20145477  .00000177  00000-0  43029-4 0  9997
2 36508  92.0332  71.7912 0008941  33.8291 326.3485 14.52171168302796
1 36508U 10013A   15360.51069170  .00000150  00000-0  36223-4 0  9997
2 36508  92.0331  72.1092 0008776  29.9037 330.2670 14.52171534302987
1 36508U 10013A   15361.81992825  .00000122  00000-0  29334-4 0  9997
2 36508  92.0329  72.4271 0008605  25.9494 334.2144 14.52171852303175
1 36508U 10013A   15362.92244304 +.00000093 +00000-0 +22260-4 0  9990
2 36508 092.0327 072.6948 0008456 022.6036 337.5542 14.52172017303358
1 36508U 10013A   15363.19807171  .00000089  00000-0  21267-4 0  9998
2 36508  92.0327  72.7618 0008420  21.7557 338.4007 14.52172088303378
1 36508U 10013A   15364.50730778  .00000066  00000-0  15525-4 0  9997
2 36508  92.0325  73.0796 0008242  17.6737 342.4755 14.52172306303562
1 36508U 10013A   15365.81654365  .00000054  00000-0  12510-4 0  9997
2 36508  92.0324  73.3975 0008063  13.4905 346.6516 14.52172507303750
1 36508U 10013A   16001.85015082  .00000036  00000-0  80723-5 0  9998
2 36508  92.0322  73.6484 0007908  10.2427 349.8940 14.52172597303909
1 36508U 10013A   16002.95266513 +.00000020 +00000-0 +42745-5 0  9992
2 36508 092.0321 073.9160 0007748 006.6270 353.5038 14.52172638304085
1 36508U 10013A   16003.15938657  .00000017  00000-0  33503-5 0  9998
2 36508  92.0321  73.9662 0007717   5.9448 354.1849 14.52172654304093
1 36508U 10013A   16004.19299374  .00000004  00000-0  15067-6 0  9991
2 36508  92.0320  74.2171 0007574   2.4538 357.6705 14.52172688304247
1 36508U 10013A   16005.50222955  .00000010  00000-0  18166-5 0  9997
2 36508  92.0318  74.5348 0007387 357.9995   2.1181 14.52172747304437
1 36508U 10013A   16006.81146536  .00000021  00000-0  45306-5 0  9990
2 36508  92.0316  74.8525 0007202 353.4280   6.6831 14.52172851304627
1 36508U 10013A   16007.84507260  .00000030  00000-0  67389-5 0  9994
2 36508  92.0314  75.1033 0007059 349.7456  10.3606 14.52172907304776
1 36508U 10013A   16008.87867986 +.00000042 +00000-0 +97419-5 0  9992
2 36508 092.0312 075.3541 0006915 345.9737 014.1277 14.52172980304946
1 36508U 10013A   16009.15430845  .00000045  00000-0  10379-4 0  9996
2 36508  92.0311  75.4210 0006880 344.9607  15.1394 14.52173020304964
1 36508U 10013A   16010.18791562  .00000061  00000-0  14220-4 0  9994
2 36508  92.0309  75.6718 0006738 341.0862  19.0094 14.52173148305118
1 36508U 10013A   16011.22152271  .00000073  00000-0  17407-4 0  9991
2 36508  92.0308  75.9225 0006602 337.1197  22.9715 14.52173304305263
1 36508U 10013A   16012.46185105  .00000117  00000-0  28037-4 0  9990
2 36508  92.0306  76.2233 0006440 332.2264  27.8599 14.52173679305444
1 36508U 10013A   16013.49545789  .00000121  00000-0  29164-4 0  9999
2 36508  92.0304  76.4741 0006307 328.0656  32.0169 14.52173885305594
1 36508U 10013A   16014.80469305  .00000121  00000-0  29135-4 0  9992
2 36508  92.0302  76.7916 0006158 322.6117  37.4661 14.52174136305782
1 36508U 10013A   16015.56267125 +.00000108 +00000-0 +25941-4 0  9998
2 36508 092.0302 076.9754 0006074 319.3065 040.7688 14.52174235305917
1 36508U 10013A   16016.80300087 +.00000013 +00000-0 +25616-5 0  9996
2 36508 092.0302 077.2761 0006125 314.3943 045.6763 14.52172370306092
1 36508U 10013A   16017.00972248  .00000015  00000-0  30958-5 0  9990
2 36508  92.0301  77.3262 0006108 313.5315  46.5384 14.52172394306100
1 36508U 10013A   16018.18114474  .00000023  00000-0  49901-5 0  9996
2 36508  92.0299  77.6102 0006001 308.4126  51.6542 14.52172549306270
1 36508U 10013A   16019.49038143  .00000144  00000-0  34846-4 0  9994
2 36508  92.0297  77.9277 0005728 301.7748  58.2901 14.52173122306466
1 36508U 10013A   16020.52398897  .00000141  00000-0  33979-4 0  9998
2 36508  92.0295  78.1783 0005658 296.8802  63.1826 14.52173384306614
1 36508U 10013A   16021.83322479  .00000152  00000-0  36878-4 0  9999
2 36508  92.0293  78.4957 0005588 290.6502  69.4106 14.52173821306806
1 36508U 10013A   16022.93573902 +.00000143 +00000-0 +34507-4 0  9997
2 36508 092.0291 078.7629 0005547 285.2956 074.7638 14.52174103306983
1 36508U 10013A   16023.14246041  .00000138  00000-0  33419-4 0  9997
2 36508  92.0291  78.8130 0005541 284.2846  75.7746 14.52174164306991
1 36508U 10013A   16024.17606728  .00000126  00000-0  30451-4 0  9993
2 36508  92.0289  79.0636 0005526 279.2960  80.7622 14.52174434307143
1 36508U 10013A   16025.48530248  .00000112  00000-0  27034-4 0  9999
2 36508  92.0287  79.3808 0005515 272.8766  87.1810 14.52174730307336
1 36508U 10013A   16026.51890913  .00000083  00000-0  19659-4 0  9993
2 36508  92.0285  79.6313 0005517 267.8549  92.2027 14.52174892307485
1 36508U 10013A   16027.82814410  .00000059  00000-0  13821-4 0  9994
2 36508  92.0283  79.9485 0005545 261.5242  98.5338 14.52175084307677
1 36508U 10013A   16028.86175067  .00000036  00000-0  81550-5 0  9997
2 36508  92.0282  80.1989 0005576 256.5357 103.5229 14.52175149307829
1 36508U 10013A   16029.89535727 +.00000024 +00000-0 +52966-5 0  9990
2 36508 092.0281 080.4493 0005624 251.5896 108.4700 14.52175221307995
1 36508U 10013A   16030.17098570  .00000017  00000-0  34342-5 0  9993
2 36508  92.0280  80.5161 0005638 250.2907 109.7693 14.52175240308011
1 36508U 10013A   16031.48022083  .00000011  00000-0  21025-5 0  9992
2 36508  92.0279  80.8332 0005716 244.0930 115.9688 14.52175304308201
1 36508U 10013A   16032.51382753  .00000025  00000-0  54360-5 0  9993
2 36508  92.0277  81.0836 0005784 239.2458 120.8180 14.52175444308350
1 36508U 10013A   16033.82306286  .00000019  00000-0  38593-5 0  9998
2 36508  92.0275  81.4006 0005886 233.2408 126.8260 14.52175436308540
1 36508U 10013A   16034.85666969  .00000035  00000-0  78217-5 0  9994
2 36508  92.0273  81.6510 0005981 228.6252 131.4441 14.52175526308690
1 36508U 10013A   16035.95918369 +.00000043 +00000-0 +99837-5 0  9990
2 36508 092.0271 081.9180 0006089 223.7868 136.2857 14.52175599308877
1 36508U 10013A   16036.16590505  .00000047  00000-0  10793-4 0  9999
2 36508  92.0270  81.9680 0006111 222.9052 137.1679 14.52175637308889
1 36508U 10013A   16037.19951190  .00000060  00000-0  14006-4 0  9990
2 36508  92.0268  82.2183 0006223 218.4750 141.6014 14.52175767309032
1 36508U 10013A   16038.50874711  .00000101  00000-0  24149-4 0  9994
2 36508  92.0266  82.5353 0006374 212.9611 147.1199 14.52176085309224
1 36508U 10013A   16039.81798212  .00000116  00000-0  27808-4 0  9991
2 36508  92.0264  82.8522 0006536 207.6621 152.4240 14.52176375309414
1 36508U 10013A   16040.85158858  .00000133  00000-0  32024-4 0  9998
2 36508  92.0263  83.1024 0006669 203.5891 156.5011 14.52176618309562
1 36508U 10013A   16041.88519486 +.00000122 +00000-0 +29371-4 0  9999
2 36508 092.0261 083.3526 0006804 199.6063 160.4884 14.52176838309731
1 36508U 10013A   16042.16082316  .00000127  00000-0  30481-4 0  9997
2 36508  92.0261  83.4193 0006840 198.5720 161.5239 14.52176932309753
1 36508U 10013A   16043.19442915  .00000152  00000-0  36888-4 0  9991
2 36508  92.0260  83.6695 0006980 194.7518 165.3487 14.52177331309907
1 36508U 10013A   16044.50366318  .00000151  00000-0  36594-4 0  9992
2 36508  92.0259  83.9863 0007165 189.9690 170.1376 14.52177720310093
1 36508U 10013A   16045.81289682  .00000175  00000-0  42388-4 0  9999
2 36508  92.0257  84.3031 0007347 185.3732 174.7398 14.52178243310288
1 36508U 10013A   16046.84650210  .00000180  00000-0  43647-4 0  9997
2 36508  92.0256  84.5532 0007490 181.8546 178.2635 14.52178561310431
1 36508U 10013A   16047.94901396 +.00000217 +00000-0 +52795-4 0  9998
2 36508 092.0255 084.8200 0007652 178.1387 181.9850 14.52179185310610
1 36508U 10013A   16048.15573489  .00000217  00000-0  52721-4 0  9999
2 36508  92.0254  84.8700 0007683 177.4611 182.6637 14.52179277310624
1 36508U 10013A   16049.18933953  .00000196  00000-0  47510-4 0  9995
2 36508  92.0253  85.1201 0007830 174.0843 186.0458 14.52179526310779
1 36508U 10013A   16050.49857265  .00000197  00000-0  47855-4 0  9995
2 36508  92.0252  85.4368 0007982 169.8524 190.2846 14.52175029310964
1 36508U 10013A   16051.53218036  .00000137  00000-0  32971-4 0  9995
2 36508  92.0250  85.6869 0008136 166.5745 193.5680 14.52175045311119
1 36508U 10013A   16052.84141651  .00000118  00000-0  28274-4 0  9998
2 36508  92.0248  86.0036 0008317 162.5126 197.6369 14.52175332311306
